STARLINK-11257 [DTC]    
1 61201U 24171B   25242.72449964 -.00000380  00000+0  17188-5 0  9996
2 61201  53.1583  37.7915 0000700  72.7702 287.3393 15.69715882 54401
STARLINK-11309 [DTC]    
1 61202U 24171C   25242.71959192 -.00000166  00000+0  34774-5 0  9997
2 61202  53.1579  37.7546 0000464 332.1385  27.9608 15.69717578 54405
STARLINK-11292 [DTC]    
1 61203U 24171D   25242.71469171  .00000776  00000+0  11261-4 0  9992
2 61203  53.1586  37.7239 0000860  72.1792 287.9320 15.69708871 54401
STARLINK-11302 [DTC]    
1 61204U 24171E   25242.70978671 -.00000478  00000+0  91265-6 0  9996
2 61204  53.1586  37.6903 0000828  75.6089 284.5021 15.69711020 54401
STARLINK-11277 [DTC]    
1 61205U 24171F   25242.69997429  .00000414  00000+0  82701-5 0  9990
2 61205  53.1576  37.6258 0000581  74.4008 285.7074 15.69707833 54406
STARLINK-11279 [DTC]    
1 61206U 24171G   25242.69506842  .00000353  00000+0  77717-5 0  9999
2 61206  53.1599  37.5927 0000799  95.4940 264.6169 15.69708444 54403
STARLINK-11091 [DTC]    
1 61207U 24171H   25242.70487933  .00000676  00000+0  10439-4 0  9996
2 61207  53.1598  37.6579 0001099  96.0111 264.1032 15.69707965 54409
STARLINK-11291 [DTC]    
1 61208U 24171J   25242.69016195 -.00002456  00000+0 -15415-4 0  9992
2 61208  53.1590  37.5604 0000896  38.0094 322.0987 15.69722728 54407
STARLINK-11304 [DTC]    
1 61209U 24171K   25242.68526143  .00000131  00000+0  59480-5 0  9998
2 61209  53.1590  37.5252 0001444  53.3190 306.7960 15.69708078 55317
STARLINK-11307 [DTC]    
1 61210U 24171L   25242.68045625  .00000404  00000+0  81928-5 0  9996
2 61210  53.1595  38.2294 0001276  57.8094 302.3048 15.69709425 54396
STARLINK-11298 [DTC]    
1 61211U 24171M   25242.67553791  .00002275  00000+0  23614-4 0  9999
2 61211  53.1596  38.1967 0000941  70.3677 289.7443 15.69722682 54396
STARLINK-11310 [DTC]    
1 61212U 24171N   25242.73432120 -.00001319  00000+0 -60438-5 0  9995
2 61212  53.1589  37.8481 0000714  81.5164 278.5935 15.69697455 54402
STARLINK-32386          
1 61213U 24171P   25242.97229793 -.00001083  00000+0 -24452-4 0  9995
2 61213  53.1609 127.9605 0001163  61.1240 298.9877 15.30196704 53176
STARLINK-32392          
1 61214U 24171Q   25242.85960535  .00001146  00000+0  50814-4 0  9998
2 61214  53.1589 128.6808 0000952 100.6429 259.4679 15.30193555 53151
STARLINK-32436          
1 61215U 24171R   25242.97335391 -.00000090  00000+0  90860-5 0  9992
2 61215  53.1604 127.9683 0001039 103.3951 256.7165 15.30193518 53171
STARLINK-32425          
1 61216U 24171S   25242.94813814  .00001509  00000+0  63082-4 0  9991
2 61216  53.1601 128.5223 0001305  96.0319 264.0831 15.30187365 53162
