[{"OBJECT_NAME":"STARLINK-11257 [DTC]","OBJECT_ID":"2024-171B","EPOCH":"2025-08-30T17:23:16.768896","MEAN_MOTION":15.69715882,"ECCENTRICITY":7.001e-5,"INCLINATION":53.1583,"RA_OF_ASC_NODE":37.7915,"ARG_OF_PERICENTER":72.7702,"MEAN_ANOMALY":287.3393,"EPHEMERIS_TYPE":0,"CLASSIFICATION_TYPE":"U","NORAD_CAT_ID":61201,"ELEMENT_SET_NO":999,"REV_AT_EPOCH":5440,"BSTAR":1.718777e-6,"MEAN_MOTION_DOT":-3.8e-6,"MEAN_MOTION_DDOT":0},{"OBJECT_NAME":"STARLINK-11309 [DTC]","OBJECT_ID":"2024-171C","EPOCH":"2025-08-30T17:16:12.741888","MEAN_MOTION":15.69717578,"ECCENTRICITY":4.648e-5,"INCLINATION":53.1579,"RA_OF_ASC_NODE":37.7546,"ARG_OF_PERICENTER":332.1385,"MEAN_ANOMALY":27.9608,"EPHEMERIS_TYPE":0,"CLASSIFICATION_TYPE":"U","NORAD_CAT_ID":61202,"ELEMENT_SET_NO":999,"REV_AT_EPOCH":5440,"BSTAR":3.477384e-6,"MEAN_MOTION_DOT":-1.66e-6,"MEAN_MOTION_DDOT":0},{"OBJECT_NAME":"STARLINK-11292 [DTC]","OBJECT_ID":"2024-171D","EPOCH":"2025-08-30T17:09:09.363744","MEAN_MOTION":15.69708871,"ECCENTRICITY":8.607e-5,"INCLINATION":53.1586,"RA_OF_ASC_NODE":37.7239,"ARG_OF_PERICENTER":72.1792,"MEAN_ANOMALY":287.932,"EPHEMERIS_TYPE":0,"CLASSIFICATION_TYPE":"U","NORAD_CAT_ID":61203,"ELEMENT_SET_NO":999,"REV_AT_EPOCH":5440,"BSTAR":1.1261383e-5,"MEAN_MOTION_DOT":7.76e-6,"MEAN_MOTION_DDOT":0},{"OBJECT_NAME":"STARLINK-11302 [DTC]","OBJECT_ID":"2024-171E","EPOCH":"2025-08-30T17:02:05.571744","MEAN_MOTION":15.6971102,"ECCENTRICITY":8.288e-5,"INCLINATION":53.1586,"RA_OF_ASC_NODE":37.6903,"ARG_OF_PERICENTER":75.6089,"MEAN_ANOMALY":284.5021,"EPHEMERIS_TYPE":0,"CLASSIFICATION_TYPE":"U","NORAD_CAT_ID":61204,"ELEMENT_SET_NO":999,"REV_AT_EPOCH":5440,"BSTAR":9.12654e-7,"MEAN_MOTION_DOT":-4.78e-6,"MEAN_MOTION_DDOT":0},{"OBJECT_NAME":"STARLINK-11277 [DTC]","OBJECT_ID":"2024-171F","EPOCH":"2025-08-30T16:47:57.778656","MEAN_MOTION":15.69707833,"ECCENTRICITY":5.819e-5,"INCLINATION":53.1576,"RA_OF_ASC_NODE":37.6258,"ARG_OF_PERICENTER":74.4008,"MEAN_ANOMALY":285.7074,"EPHEMERIS_TYPE":0,"CLASSIFICATION_TYPE":"U","NORAD_CAT_ID":61205,"ELEMENT_SET_NO":999,"REV_AT_EPOCH":5440,"BSTAR":8.270106e-6,"MEAN_MOTION_DOT":4.14e-6,"MEAN_MOTION_DDOT":0},{"OBJECT_NAME":"STARLINK-11279 [DTC]","OBJECT_ID":"2024-171G","EPOCH":"2025-08-30T16:40:53.911488","MEAN_MOTION":15.69708444,"ECCENTRICITY":7.993e-5,"INCLINATION":53.1599,"RA_OF_ASC_NODE":37.5927,"ARG_OF_PERICENTER":95.494,"MEAN_ANOMALY":264.6169,"EPHEMERIS_TYPE":0,"CLASSIFICATION_TYPE":"U","NORAD_CAT_ID":61206,"ELEMENT_SET_NO":999,"REV_AT_EPOCH":5440,"BSTAR":7.771714e-6,"MEAN_MOTION_DOT":3.53e-6,"MEAN_MOTION_DDOT":0},{"OBJECT_NAME":"STARLINK-11091 [DTC]","OBJECT_ID":"2024-171H","EPOCH":"2025-08-30T16:55:01.574112","MEAN_MOTION":15.69707965,"ECCENTRICITY":0.00010994,"INCLINATION":53.1598,"RA_OF_ASC_NODE":37.6579,"ARG_OF_PERICENTER":96.0111,"MEAN_ANOMALY":264.1032,"EPHEMERIS_TYPE":0,"CLASSIFICATION_TYPE":"U","NORAD_CAT_ID":61207,"ELEMENT_SET_NO":999,"REV_AT_EPOCH":5440,"BSTAR":1.0438616e-5,"MEAN_MOTION_DOT":6.76e-6,"MEAN_MOTION_DDOT":0},{"OBJECT_NAME":"STARLINK-11291 [DTC]","OBJECT_ID":"2024-171J","EPOCH":"2025-08-30T16:33:49.992480","MEAN_MOTION":15.69722728,"ECCENTRICITY":8.966e-5,"INCLINATION":53.159,"RA_OF_ASC_NODE":37.5604,"ARG_OF_PERICENTER":38.0094,"MEAN_ANOMALY":322.0987,"EPHEMERIS_TYPE":0,"CLASSIFICATION_TYPE":"U","NORAD_CAT_ID":61208,"ELEMENT_SET_NO":999,"REV_AT_EPOCH":5440,"BSTAR":-1.5415259e-5,"MEAN_MOTION_DOT":-2.456e-5,"MEAN_MOTION_DDOT":0},{"OBJECT_NAME":"STARLINK-11304 [DTC]","OBJECT_ID":"2024-171K","EPOCH":"2025-08-30T16:26:46.587552","MEAN_MOTION":15.69708078,"ECCENTRICITY":0.00014442,"INCLINATION":53.159,"RA_OF_ASC_NODE":37.5252,"ARG_OF_PERICENTER":53.319,"MEAN_ANOMALY":306.796,"EPHEMERIS_TYPE":0,"CLASSIFICATION_TYPE":"U","NORAD_CAT_ID":61209,"ELEMENT_SET_NO":999,"REV_AT_EPOCH":5531,"BSTAR":5.948025e-6,"MEAN_MOTION_DOT":1.31e-6,"MEAN_MOTION_DDOT":0},{"OBJECT_NAME":"STARLINK-11307 [DTC]","OBJECT_ID":"2024-171L","EPOCH":"2025-08-30T16:19:51.420000","MEAN_MOTION":15.69709425,"ECCENTRICITY":0.0001276,"INCLINATION":53.1595,"RA_OF_ASC_NODE":38.2294,"ARG_OF_PERICENTER":57.8094,"MEAN_ANOMALY":302.3048,"EPHEMERIS_TYPE":0,"CLASSIFICATION_TYPE":"U","NORAD_CAT_ID":61210,"ELEMENT_SET_NO":999,"REV_AT_EPOCH":5439,"BSTAR":8.192773e-6,"MEAN_MOTION_DOT":4.04e-6,"MEAN_MOTION_DDOT":0},{"OBJECT_NAME":"STARLINK-11298 [DTC]","OBJECT_ID":"2024-171M","EPOCH":"2025-08-30T16:12:46.475424","MEAN_MOTION":15.69722682,"ECCENTRICITY":9.418e-5,"INCLINATION":53.1596,"RA_OF_ASC_NODE":38.1967,"ARG_OF_PERICENTER":70.3677,"MEAN_ANOMALY":289.7443,"EPHEMERIS_TYPE":0,"CLASSIFICATION_TYPE":"U","NORAD_CAT_ID":61211,"ELEMENT_SET_NO":999,"REV_AT_EPOCH":5439,"BSTAR":2.3614274e-5,"MEAN_MOTION_DOT":2.275e-5,"MEAN_MOTION_DDOT":0},{"OBJECT_NAME":"STARLINK-11310 [DTC]","OBJECT_ID":"2024-171N","EPOCH":"2025-08-30T17:37:25.351680","MEAN_MOTION":15.69697455,"ECCENTRICITY":7.145e-5,"INCLINATION":53.1589,"RA_OF_ASC_NODE":37.8481,"ARG_OF_PERICENTER":81.5164,"MEAN_ANOMALY":278.5935,"EPHEMERIS_TYPE":0,"CLASSIFICATION_TYPE":"U","NORAD_CAT_ID":61212,"ELEMENT_SET_NO":999,"REV_AT_EPOCH":5440,"BSTAR":-6.043789e-6,"MEAN_MOTION_DOT":-1.319e-5,"MEAN_MOTION_DDOT":0},{"OBJECT_NAME":"STARLINK-32386","OBJECT_ID":"2024-171P","EPOCH":"2025-08-30T23:20:06.541152","MEAN_MOTION":15.30196704,"ECCENTRICITY":0.00011632,"INCLINATION":53.1609,"RA_OF_ASC_NODE":127.9605,"ARG_OF_PERICENTER":61.124,"MEAN_ANOMALY":298.9877,"EPHEMERIS_TYPE":0,"CLASSIFICATION_TYPE":"U","NORAD_CAT_ID":61213,"ELEMENT_SET_NO":999,"REV_AT_EPOCH":5317,"BSTAR":-2.4452456e-5,"MEAN_MOTION_DOT":-1.083e-5,"MEAN_MOTION_DDOT":0},{"OBJECT_NAME":"STARLINK-32392","OBJECT_ID":"2024-171Q","EPOCH":"2025-08-30T20:37:49.902240","MEAN_MOTION":15.30193555,"ECCENTRICITY":9.525e-5,"INCLINATION":53.1589,"RA_OF_ASC_NODE":128.6808,"ARG_OF_PERICENTER":100.6429,"MEAN_ANOMALY":259.4679,"EPHEMERIS_TYPE":0,"CLASSIFICATION_TYPE":"U","NORAD_CAT_ID":61214,"ELEMENT_SET_NO":999,"REV_AT_EPOCH":5315,"BSTAR":5.0813983e-5,"MEAN_MOTION_DOT":1.146e-5,"MEAN_MOTION_DDOT":0},{"OBJECT_NAME":"STARLINK-32436","OBJECT_ID":"2024-171R","EPOCH":"2025-08-30T23:21:37.777824","MEAN_MOTION":15.30193518,"ECCENTRICITY":0.00010395,"INCLINATION":53.1604,"RA_OF_ASC_NODE":127.9683,"ARG_OF_PERICENTER":103.3951,"MEAN_ANOMALY":256.7165,"EPHEMERIS_TYPE":0,"CLASSIFICATION_TYPE":"U","NORAD_CAT_ID":61215,"ELEMENT_SET_NO":999,"REV_AT_EPOCH":5317,"BSTAR":9.086024e-6,"MEAN_MOTION_DOT":-9.0e-7,"MEAN_MOTION_DDOT":0},{"OBJECT_NAME":"STARLINK-32425","OBJECT_ID":"2024-171S","EPOCH":"2025-08-30T22:45:19.135296","MEAN_MOTION":15.30187365,"ECCENTRICITY":0.00013055,"INCLINATION":53.1601,"RA_OF_ASC_NODE":128.5223,"ARG_OF_PERICENTER":96.0319,"MEAN_ANOMALY":264.0831,"EPHEMERIS_TYPE":0,"CLASSIFICATION_TYPE":"U","NORAD_CAT_ID":61216,"ELEMENT_SET_NO":999,"REV_AT_EPOCH":5316,"BSTAR":6.3081768e-5,"MEAN_MOTION_DOT":1.509e-5,"MEAN_MOTION_DDOT":0}]
